[{"OBJECT_NAME":"STARLINK-6243","OBJECT_ID":"2023-088AJ","EPOCH":"2026-03-09T22:00:01.999584","MEAN_MOTION":15.07357307,"ECCENTRICITY":9.702e-5,"INCLINATION":43.0004,"RA_OF_ASC_NODE":93.533,"ARG_OF_PERICENTER":272.2621,"MEAN_ANOMALY":329.8438,"EPHEMERIS_TYPE":0,"CLASSIFICATION_TYPE":"U","NORAD_CAT_ID":57080,"ELEMENT_SET_NO":999,"REV_AT_EPOCH":577,"BSTAR":0.003138405,"MEAN_MOTION_DOT":0.00048374,"MEAN_MOTION_DDOT":0},{"OBJECT_NAME":"CZ-6A DEB","OBJECT_ID":"2024-140AET","EPOCH":"2026-03-09T12:52:08.504256","MEAN_MOTION":14.9565513,"ECCENTRICITY":0.00551091,"INCLINATION":88.9325,"RA_OF_ASC_NODE":275.873,"ARG_OF_PERICENTER":183.9615,"MEAN_ANOMALY":176.1189,"EPHEMERIS_TYPE":0,"CLASSIFICATION_TYPE":"U","NORAD_CAT_ID":64653,"ELEMENT_SET_NO":999,"REV_AT_EPOCH":7426,"BSTAR":0.0038297655,"MEAN_MOTION_DOT":0.00044109,"MEAN_MOTION_DDOT":0}]
